{"type": "FeatureCollection", "features": [ {"type": "Feature", "properties": {"norad_id": 66798, "name": "STARLINK-36041", "group": "last-30-days", "lat": -30.897584598317202, "lon": 95.19795514222186, "alt_km": 333.53760912613416, "timestamp": "2025-12-15T11:38:35.906684+00:00", "meta": {"OBJECT_NAME": "STARLINK-36041", "OBJECT_ID": "2025-278H", "EPOCH": "2025-12-14T20:00:06.000192", "MEAN_MOTION": 15.8137676, "ECCENTRICITY": 0.00016122, "INCLINATION": 42.997, "RA_OF_ASC_NODE": 239.2229, "ARG_OF_PERICENTER": 270.9782, "MEAN_ANOMALY": 205.2064, "EPHEMERIS_TYPE": 0, "CLASSIFICATION_TYPE": "U", "NORAD_CAT_ID": 66798, "ELEMENT_SET_NO": 999, "REV_AT_EPOCH": 313, "BSTAR": -0.0072925634, "MEAN_MOTION_DOT": -0.01309993, "MEAN_MOTION_DDOT": 0}, "tle": {"line1": "1 66798U 25278H   25348.83340278 -.01309993  00000+0 -72926-2 0  9990", "line2": "2 66798  42.9970 239.2229 0001612 270.9782 205.2064 15.81376760  3133"}}, "geometry": {"type": "Point", "coordinates": [95.19795514222186, -30.897584598317202]}}, {"type": "Feature", "properties": {"norad_id": 66799, "name": "STARLINK-36044", "group": "last-30-days", "lat": -32.03660864017217, "lon": 97.42208956310263, "alt_km": 333.64457385276, "timestamp": "2025-12-15T11:38:35.906694+00:00", "meta": {"OBJECT_NAME": "STARLINK-36044", "OBJECT_ID": "2025-278J", "EPOCH": "2025-12-14T20:00:06.000192", "MEAN_MOTION": 15.81350782, "ECCENTRICITY": 0.00015576, "INCLINATION": 42.9969, "RA_OF_ASC_NODE": 239.2173, "ARG_OF_PERICENTER": 268.9927, "MEAN_ANOMALY": 209.4765, "EPHEMERIS_TYPE": 0, "CLASSIFICATION_TYPE": "U", "NORAD_CAT_ID": 66799, "ELEMENT_SET_NO": 999, "REV_AT_EPOCH": 329, "BSTAR": -0.0073220173, "MEAN_MOTION_DOT": -0.01313187, "MEAN_MOTION_DDOT": 0}, "tle": {"line1": "1 66799U 25278J   25348.83340278 -.01313187  00000+0 -73220-2 0  9999", "line2": "2 66799  42.9969 239.2173 0001557 268.9927 209.4765 15.81350782  3293"}}, "geometry": {"type": "Point", "coordinates": [97.42208956310263, -32.03660864017217]}}, {"type": "Feature", "properties": {"norad_id": 66800, "name": "STARLINK-35996", "group": "last-30-days", "lat": -34.18006996890339, "lon": 102.00922253311151, "alt_km": 333.9478706350128, "timestamp": "2025-12-15T11:38:35.906703+00:00", "meta": {"OBJECT_NAME": "STARLINK-35996", "OBJECT_ID": "2025-278K", "EPOCH": "2025-12-14T20:00:06.000192", "MEAN_MOTION": 15.81294407, "ECCENTRICITY": 0.00015994, "INCLINATION": 42.9969, "RA_OF_ASC_NODE": 239.2054, "ARG_OF_PERICENTER": 273.1661, "MEAN_ANOMALY": 209.865, "EPHEMERIS_TYPE": 0, "CLASSIFICATION_TYPE": "U", "NORAD_CAT_ID": 66800, "ELEMENT_SET_NO": 999, "REV_AT_EPOCH": 308, "BSTAR": -0.007394313, "MEAN_MOTION_DOT": -0.01321493, "MEAN_MOTION_DDOT": 0}, "tle": {"line1": "1 66800U 25278K   25348.83340278 -.01321493  00000+0 -73943-2 0  9993", "line2": "2 66800  42.9969 239.2054 0001599 273.1661 209.8650 15.81294407  3088"}}, "geometry": {"type": "Point", "coordinates": [102.00922253311151, -34.18006996890339]}}, {"type": "Feature", "properties": {"norad_id": 66801, "name": "STARLINK-36080", "group": "last-30-days", "lat": -38.68449388430152, "lon": 114.43785351535625, "alt_km": 334.5641836690529, "timestamp": "2025-12-15T11:38:35.906713+00:00", "meta": {"OBJECT_NAME": "STARLINK-36080", "OBJECT_ID": "2025-278L", "EPOCH": "2025-12-14T20:00:06.000192", "MEAN_MOTION": 15.81168748, "ECCENTRICITY": 0.00015125, "INCLINATION": 42.9968, "RA_OF_ASC_NODE": 239.1762, "ARG_OF_PERICENTER": 272.6018, "MEAN_ANOMALY": 221.7785, "EPHEMERIS_TYPE": 0, "CLASSIFICATION_TYPE": "U", "NORAD_CAT_ID": 66801, "ELEMENT_SET_NO": 999, "REV_AT_EPOCH": 329, "BSTAR": -0.0076674261, "MEAN_MOTION_DOT": -0.01383287, "MEAN_MOTION_DDOT": 0}, "tle": {"line1": "1 66801U 25278L   25348.83340278 -.01383287  00000+0 -76674-2 0  9997", "line2": "2 66801  42.9968 239.1762 0001512 272.6018 221.7785 15.81168748  3291"}}, "geometry": {"type": "Point", "coordinates": [114.43785351535625, -38.68449388430152]}}, {"type": "Feature", "properties": {"norad_id": 66802, "name": "STARLINK-35604", "group": "last-30-days", "lat": -33.08358939570631, "lon": 99.58954901578713, "alt_km": 333.7055214895445, "timestamp": "2025-12-15T11:38:35.906725+00:00", "meta": {"OBJECT_NAME": "STARLINK-35604", "OBJECT_ID": "2025-278M", "EPOCH": "2025-12-14T20:00:06.000192", "MEAN_MOTION": 15.81334229, "ECCENTRICITY": 0.00015376, "INCLINATION": 42.9969, "RA_OF_ASC_NODE": 239.2116, "ARG_OF_PERICENTER": 266.9811, "MEAN_ANOMALY": 213.6419, "EPHEMERIS_TYPE": 0, "CLASSIFICATION_TYPE": "U", "NORAD_CAT_ID": 66802, "ELEMENT_SET_NO": 999, "REV_AT_EPOCH": 329, "BSTAR": -0.0073421498, "MEAN_MOTION_DOT": -0.01315439, "MEAN_MOTION_DDOT": 0}, "tle": {"line1": "1 66802U 25278M   25348.83340278 -.01315439  00000+0 -73421-2 0  9999", "line2": "2 66802  42.9969 239.2116 0001537 266.9811 213.6419 15.81334229  3294"}}, "geometry": {"type": "Point", "coordinates": [99.58954901578713, -33.08358939570631]}}, {"type": "Feature", "properties": {"norad_id": 66803, "name": "STARLINK-35565", "group": "last-30-days", "lat": -35.14114487386522, "lon": 104.27962137674173, "alt_km": 334.10326550144146, "timestamp": "2025-12-15T11:38:35.906735+00:00", "meta": {"OBJECT_NAME": "STARLINK-35565", "OBJECT_ID": "2025-278N", "EPOCH": "2025-12-14T20:00:06.000192", "MEAN_MOTION": 15.81282996, "ECCENTRICITY": 0.00015422, "INCLINATION": 42.9969, "RA_OF_ASC_NODE": 239.2001, "ARG_OF_PERICENTER": 275.0961, "MEAN_ANOMALY": 210.0862, "EPHEMERIS_TYPE": 0, "CLASSIFICATION_TYPE": "U", "NORAD_CAT_ID": 66803, "ELEMENT_SET_NO": 999, "REV_AT_EPOCH": 338, "BSTAR": -0.0074593636, "MEAN_MOTION_DOT": -0.01330995, "MEAN_MOTION_DDOT": 0}, "tle": {"line1": "1 66803U 25278N   25348.83340278 -.01330995  00000+0 -74594-2 0  9996", "line2": "2 66803  42.9969 239.2001 0001542 275.0961 210.0862 15.81282996  3387"}}, "geometry": {"type": "Point", "coordinates": [104.27962137674173, -35.14114487386522]}}, {"type": "Feature", "properties": {"norad_id": 66804, "name": "STARLINK-36038", "group": "last-30-days", "lat": -36.16035540256301, "lon": 106.87052375484924, "alt_km": 334.15837159310104, "timestamp": "2025-12-15T11:38:35.906745+00:00", "meta": {"OBJECT_NAME": "STARLINK-36038", "OBJECT_ID": "2025-278P", "EPOCH": "2025-12-14T20:00:06.000192", "MEAN_MOTION": 15.81238965, "ECCENTRICITY": 0.00015521, "INCLINATION": 42.9972, "RA_OF_ASC_NODE": 239.194, "ARG_OF_PERICENTER": 268.22, "MEAN_ANOMALY": 219.423, "EPHEMERIS_TYPE": 0, "CLASSIFICATION_TYPE": "U", "NORAD_CAT_ID": 66804, "ELEMENT_SET_NO": 999, "REV_AT_EPOCH": 329, "BSTAR": -0.0075223619, "MEAN_MOTION_DOT": -0.01363938, "MEAN_MOTION_DDOT": 0}, "tle": {"line1": "1 66804U 25278P   25348.83340278 -.01363938  00000+0 -75224-2 0  9991", "line2": "2 66804  42.9972 239.1940 0001552 268.2200 219.4230 15.81238965  3293"}}, "geometry": {"type": "Point", "coordinates": [106.87052375484924, -36.16035540256301]}}, {"type": "Feature", "properties": {"norad_id": 66805, "name": "STARLINK-36049", "group": "last-30-days", "lat": -37.890620591710565, "lon": 111.83748862254357, "alt_km": 334.53518775730663, "timestamp": "2025-12-15T11:38:35.906757+00:00", "meta": {"OBJECT_NAME": "STARLINK-36049", "OBJECT_ID": "2025-278Q", "EPOCH": "2025-12-14T20:00:06.000192", "MEAN_MOTION": 15.81195443, "ECCENTRICITY": 0.0001521, "INCLINATION": 42.9969, "RA_OF_ASC_NODE": 239.1824, "ARG_OF_PERICENTER": 277.7314, "MEAN_ANOMALY": 214.3824, "EPHEMERIS_TYPE": 0, "CLASSIFICATION_TYPE": "U", "NORAD_CAT_ID": 66805, "ELEMENT_SET_NO": 999, "REV_AT_EPOCH": 329, "BSTAR": -0.0076270776, "MEAN_MOTION_DOT": -0.01378338, "MEAN_MOTION_DDOT": 0}, "tle": {"line1": "1 66805U 25278Q   25348.83340278 -.01378338  00000+0 -76271-2 0  9995", "line2": "2 66805  42.9969 239.1824 0001521 277.7314 214.3824 15.81195443  3294"}}, "geometry": {"type": "Point", "coordinates": [111.83748862254357, -37.890620591710565]}}, {"type": "Feature", "properties": {"norad_id": 66806, "name": "STARLINK-36069", "group": "last-30-days", "lat": -37.0009379176922, "lon": 109.18089297213227, "alt_km": 334.38147641536943, "timestamp": "2025-12-15T11:38:35.906767+00:00", "meta": {"OBJECT_NAME": "STARLINK-36069", "OBJECT_ID": "2025-278R", "EPOCH": "2025-12-14T20:00:06.000192", "MEAN_MOTION": 15.81234627, "ECCENTRICITY": 0.00014651, "INCLINATION": 42.9971, "RA_OF_ASC_NODE": 239.1887, "ARG_OF_PERICENTER": 275.9925, "MEAN_ANOMALY": 213.7171, "EPHEMERIS_TYPE": 0, "CLASSIFICATION_TYPE": "U", "NORAD_CAT_ID": 66806, "ELEMENT_SET_NO": 999, "REV_AT_EPOCH": 308, "BSTAR": -0.0075623381, "MEAN_MOTION_DOT": -0.01370105, "MEAN_MOTION_DDOT": 0}, "tle": {"line1": "1 66806U 25278R   25348.83340278 -.01370105  00000+0 -75623-2 0  9990", "line2": "2 66806  42.9971 239.1887 0001465 275.9925 213.7171 15.81234627  3085"}}, "geometry": {"type": "Point", "coordinates": [109.18089297213227, -37.0009379176922]}}, {"type": "Feature", "properties": {"norad_id": 66807, "name": "STARLINK-36000", "group": "last-30-days", "lat": -39.41674355684389, "lon": 117.08510429718703, "alt_km": 334.6519290876877, "timestamp": "2025-12-15T11:38:35.906777+00:00", "meta": {"OBJECT_NAME": "STARLINK-36000", "OBJECT_ID": "2025-278S", "EPOCH": "2025-12-14T20:00:06.000192", "MEAN_MOTION": 15.81143418, "ECCENTRICITY": 0.00015652, "INCLINATION": 42.997, "RA_OF_ASC_NODE": 239.1713, "ARG_OF_PERICENTER": 272.7353, "MEAN_ANOMALY": 223.9104, "EPHEMERIS_TYPE": 0, "CLASSIFICATION_TYPE": "U", "NORAD_CAT_ID": 66807, "ELEMENT_SET_NO": 999, "REV_AT_EPOCH": 335, "BSTAR": -0.0077353003, "MEAN_MOTION_DOT": -0.01392751, "MEAN_MOTION_DDOT": 0}, "tle": {"line1": "1 66807U 25278S   25348.83340278 -.01392751  00000+0 -77353-2 0  9994", "line2": "2 66807  42.9970 239.1713 0001565 272.7353 223.9104 15.81143418  3350"}}, "geometry": {"type": "Point", "coordinates": [117.08510429718703, -39.41674355684389]}}]}